{
    "week": 295,
    "satellites": [
        {
            "Name": "COSMOS 2485 (747)",
            "Line1": "1 39155U 13019A   24340.96372842  .00000031  00000+0  00000+0 0  9993",
            "Line2": "2 39155  65.1224  92.3835 0023851 228.8415 130.9552  2.13104293 90384",
            "SatelliteNumber": "39155",
            "Classification": "U",
            "LaunchYear": "13",
            "LaunchNumber": "019",
            "PieceOfLaunch": "A",
            "EpochYear": "24",
            "EpochDay": 340.96372842,
            "FirstDerivativeMeanMotion": 3.1e-07,
            "SecondDerivativeMeanMotion": "00000+0",
            "BSTAR": "00000+0",
            "SetNumber": "999",
            "Inclination": 65.1224,
            "RAAN": 92.3835,
            "Eccentricity": 0.0023851,
            "ArgumentOfPerigee": 228.8415,
            "MeanAnomaly": 130.9552,
            "MeanMotion": 2.13104293,
            "RevolutionNumber": "9038"
        },
        {
            "Name": "COSMOS 2492 (754)",
            "Line1": "1 39620U 14012A   24341.38834973 -.00000022  00000+0  00000+0 0  9990",
            "Line2": "2 39620  65.5999 332.8292 0014609 311.5631  48.3291  2.13103098 83357",
            "SatelliteNumber": "39620",
            "Classification": "U",
            "LaunchYear": "14",
            "LaunchNumber": "012",
            "PieceOfLaunch": "A",
            "EpochYear": "24",
            "EpochDay": 341.38834973,
            "FirstDerivativeMeanMotion": -2.2e-07,
            "SecondDerivativeMeanMotion": "00000+0",
            "BSTAR": "00000+0",
            "SetNumber": "999",
            "Inclination": 65.5999,
            "RAAN": 332.8292,
            "Eccentricity": 0.0014609,
            "ArgumentOfPerigee": 311.5631,
            "MeanAnomaly": 48.3291,
            "MeanMotion": 2.13103098,
            "RevolutionNumber": "8335"
        },
        {
            "Name": "COSMOS 2500 (755)",
            "Line1": "1 40001U 14032A   24341.09619659 -.00000022  00000+0  00000+0 0  9997",
            "Line2": "2 40001  65.5368 332.6307 0008194 222.3555 137.5985  2.13105858 81561",
            "SatelliteNumber": "40001",
            "Classification": "U",
            "LaunchYear": "14",
            "LaunchNumber": "032",
            "PieceOfLaunch": "A",
            "EpochYear": "24",
            "EpochDay": 341.09619659,
            "FirstDerivativeMeanMotion": -2.2e-07,
            "SecondDerivativeMeanMotion": "00000+0",
            "BSTAR": "00000+0",
            "SetNumber": "999",
            "Inclination": 65.5368,
            "RAAN": 332.6307,
            "Eccentricity": 0.0008194,
            "ArgumentOfPerigee": 222.3555,
            "MeanAnomaly": 137.5985,
            "MeanMotion": 2.13105858,
            "RevolutionNumber": "8156"
        },
        {
            "Name": "COSMOS 2501 (702K)",
            "Line1": "1 40315U 14075A   24341.35145115  .00000065  00000+0  00000+0 0  9998",
            "Line2": "2 40315  63.6161 209.6974 0019170 204.7261 155.2697  2.13101353 77968",
            "SatelliteNumber": "40315",
            "Classification": "U",
            "LaunchYear": "14",
            "LaunchNumber": "075",
            "PieceOfLaunch": "A",
            "EpochYear": "24",
            "EpochDay": 341.35145115,
            "FirstDerivativeMeanMotion": 6.5e-07,
            "SecondDerivativeMeanMotion": "00000+0",
            "BSTAR": "00000+0",
            "SetNumber": "999",
            "Inclination": 63.6161,
            "RAAN": 209.6974,
            "Eccentricity": 0.001917,
            "ArgumentOfPerigee": 204.7261,
            "MeanAnomaly": 155.2697,
            "MeanMotion": 2.13101353,
            "RevolutionNumber": "7796"
        },
        {
            "Name": "COSMOS 2514 (751)",
            "Line1": "1 41330U 16008A   24341.33434528 -.00000022  00000+0  00000+0 0  9995",
            "Line2": "2 41330  65.3302 332.0885 0012294 222.6236 137.2978  2.13102507 68734",
            "SatelliteNumber": "41330",
            "Classification": "U",
            "LaunchYear": "16",
            "LaunchNumber": "008",
            "PieceOfLaunch": "A",
            "EpochYear": "24",
            "EpochDay": 341.33434528,
            "FirstDerivativeMeanMotion": -2.2e-07,
            "SecondDerivativeMeanMotion": "00000+0",
            "BSTAR": "00000+0",
            "SetNumber": "999",
            "Inclination": 65.3302,
            "RAAN": 332.0885,
            "Eccentricity": 0.0012294,
            "ArgumentOfPerigee": 222.6236,
            "MeanAnomaly": 137.2978,
            "MeanMotion": 2.13102507,
            "RevolutionNumber": "6873"
        },
        {
            "Name": "COSMOS 2522 (752)",
            "Line1": "1 42939U 17055A   24341.17411130  .00000064  00000+0  00000+0 0  9995",
            "Line2": "2 42939  64.0775 210.8932 0006190 230.6396 129.3946  2.13101903 56081",
            "SatelliteNumber": "42939",
            "Classification": "U",
            "LaunchYear": "17",
            "LaunchNumber": "055",
            "PieceOfLaunch": "A",
            "EpochYear": "24",
            "EpochDay": 341.1741113,
            "FirstDerivativeMeanMotion": 6.4e-07,
            "SecondDerivativeMeanMotion": "00000+0",
            "BSTAR": "00000+0",
            "SetNumber": "999",
            "Inclination": 64.0775,
            "RAAN": 210.8932,
            "Eccentricity": 0.000619,
            "ArgumentOfPerigee": 230.6396,
            "MeanAnomaly": 129.3946,
            "MeanMotion": 2.13101903,
            "RevolutionNumber": "5608"
        },
        {
            "Name": "COSMOS 2527 (756)",
            "Line1": "1 43508U 18053A   24341.60280611  .00000031  00000+0  00000+0 0  9997",
            "Line2": "2 43508  65.2821  92.5501 0008619 222.2435 137.6937  2.13102171 50393",
            "SatelliteNumber": "43508",
            "Classification": "U",
            "LaunchYear": "18",
            "LaunchNumber": "053",
            "PieceOfLaunch": "A",
            "EpochYear": "24",
            "EpochDay": 341.60280611,
            "FirstDerivativeMeanMotion": 3.1e-07,
            "SecondDerivativeMeanMotion": "00000+0",
            "BSTAR": "00000+0",
            "SetNumber": "999",
            "Inclination": 65.2821,
            "RAAN": 92.5501,
            "Eccentricity": 0.0008619,
            "ArgumentOfPerigee": 222.2435,
            "MeanAnomaly": 137.6937,
            "MeanMotion": 2.13102171,
            "RevolutionNumber": "5039"
        },
        {
            "Name": "COSMOS 2529 (757)",
            "Line1": "1 43687U 18086A   24341.23223234  .00000063  00000+0  00000+0 0  9993",
            "Line2": "2 43687  64.2930 211.4502 0007342 260.5606  99.4454  2.13101950 47390",
            "SatelliteNumber": "43687",
            "Classification": "U",
            "LaunchYear": "18",
            "LaunchNumber": "086",
            "PieceOfLaunch": "A",
            "EpochYear": "24",
            "EpochDay": 341.23223234,
            "FirstDerivativeMeanMotion": 6.3e-07,
            "SecondDerivativeMeanMotion": "00000+0",
            "BSTAR": "00000+0",
            "SetNumber": "999",
            "Inclination": 64.293,
            "RAAN": 211.4502,
            "Eccentricity": 0.0007342,
            "ArgumentOfPerigee": 260.5606,
            "MeanAnomaly": 99.4454,
            "MeanMotion": 2.1310195,
            "RevolutionNumber": "4739"
        },
        {
            "Name": "COSMOS 2534 (758)",
            "Line1": "1 44299U 19030A   24341.51854834  .00000063  00000+0  00000+0 0  9990",
            "Line2": "2 44299  64.3661 211.4101 0009555 287.8232  66.0707  2.13101969 43030",
            "SatelliteNumber": "44299",
            "Classification": "U",
            "LaunchYear": "19",
            "LaunchNumber": "030",
            "PieceOfLaunch": "A",
            "EpochYear": "24",
            "EpochDay": 341.51854834,
            "FirstDerivativeMeanMotion": 6.3e-07,
            "SecondDerivativeMeanMotion": "00000+0",
            "BSTAR": "00000+0",
            "SetNumber": "999",
            "Inclination": 64.3661,
            "RAAN": 211.4101,
            "Eccentricity": 0.0009555,
            "ArgumentOfPerigee": 287.8232,
            "MeanAnomaly": 66.0707,
            "MeanMotion": 2.13101969,
            "RevolutionNumber": "4303"
        },
        {
            "Name": "COSMOS 2544 (759)",
            "Line1": "1 44850U 19088A   24341.54700666  .00000031  00000+0  00000+0 0  9997",
            "Line2": "2 44850  65.2691  92.3857 0013172 249.1266 110.7362  2.13101951 38835",
            "SatelliteNumber": "44850",
            "Classification": "U",
            "LaunchYear": "19",
            "LaunchNumber": "088",
            "PieceOfLaunch": "A",
            "EpochYear": "24",
            "EpochDay": 341.54700666,
            "FirstDerivativeMeanMotion": 3.1e-07,
            "SecondDerivativeMeanMotion": "00000+0",
            "BSTAR": "00000+0",
            "SetNumber": "999",
            "Inclination": 65.2691,
            "RAAN": 92.3857,
            "Eccentricity": 0.0013172,
            "ArgumentOfPerigee": 249.1266,
            "MeanAnomaly": 110.7362,
            "MeanMotion": 2.13101951,
            "RevolutionNumber": "3883"
        }
    ]
}